{
  "type": "FeatureCollection",
  "source": {
    "datasetId": "ecobank-demo-habitat-v1",
    "title": "EcoBank-like habitat demo snapshot",
    "provider": "National Institute of Ecology EcoBank (reference only)",
    "sourceUrl": "https://www.nie-ecobank.kr/",
    "licence": "CC0-1.0 (repository-authored synthetic fixture)",
    "attribution": "Bassanggum synthetic EcoBank-like fixture; EcoBank referenced (National Institute of Ecology)",
    "snapshotFilename": "ecobank-habitat.geojson",
    "checksum": "sha256:7337b88daadc39b52b77610d33e8fda43418c553a3c9443fbe62406741d0d26f"
  },
  "features": [
    {
      "type": "Feature",
      "properties": {
        "sourceRecordId": "demo-habitat-001",
        "koreanName": "블루길",
        "scientificName": "Lepomis macrochirus",
        "frequencyBand": "frequent"
      },
      "geometry": {
        "type": "Polygon",
        "coordinates": [
          [
            [128.58, 36.55],
            [128.62, 36.55],
            [128.62, 36.59],
            [128.58, 36.59],
            [128.58, 36.55]
          ]
        ]
      }
    }
  ]
}
